{
"type": "FeatureCollection",
"crs": { "type": "name", "properties": { "name": "urn:ogc:def:crs:EPSG::32718" } },
"features": [
{ "type": "Feature", "properties": { "name": "chi0348-0000" }, "geometry": { "type": "LineString", "coordinates": [ [ 777385.501958318403922, 6219367.872181735932827 ], [ 777310.192031714366749, 6219760.70857963245362 ] ] } },
{ "type": "Feature", "properties": { "name": "chi0348-0001" }, "geometry": { "type": "LineString", "coordinates": [ [ 777487.464942589635029, 6219387.516581706702709 ], [ 777404.725908908760175, 6219778.796626198105514 ] ] } },
{ "type": "Feature", "properties": { "name": "chi0348-0002" }, "geometry": { "type": "LineString", "coordinates": [ [ 777608.543071058695205, 6219416.589025629684329 ], [ 777477.678868692368269, 6219794.633250192739069 ] ] } },
{ "type": "Feature", "properties": { "name": "chi0348-0003" }, "geometry": { "type": "LineString", "coordinates": [ [ 777733.906563511351123, 6219475.068584367632866 ], [ 777533.403911889763549, 6219821.192555563524365 ] ] } },
{ "type": "Feature", "properties": { "name": "chi0348-0004" }, "geometry": { "type": "LineString", "coordinates": [ [ 777839.305598192615435, 6219548.459560760296881 ], [ 777590.651999979047105, 6219861.807943473570049 ] ] } },
{ "type": "Feature", "properties": { "name": "chi0348-0005" }, "geometry": { "type": "LineString", "coordinates": [ [ 777931.113449266646057, 6219630.578525448217988 ], [ 777647.651423348113894, 6219912.756524983793497 ] ] } },
{ "type": "Feature", "properties": { "name": "chi0348-0006" }, "geometry": { "type": "LineString", "coordinates": [ [ 778005.317932698177174, 6219713.771985894069076 ], [ 777706.124637548811734, 6219979.206091096624732 ] ] } },
{ "type": "Feature", "properties": { "name": "chi0348-0007" }, "geometry": { "type": "LineString", "coordinates": [ [ 778076.100731485872529, 6219793.624016446992755 ], [ 777768.110554373823106, 6220048.882711473852396 ] ] } },
{ "type": "Feature", "properties": { "name": "chi0348-0008" }, "geometry": { "type": "LineString", "coordinates": [ [ 778141.384709007805213, 6219877.968490310013294 ], [ 777824.857497499673627, 6220122.488819636404514 ] ] } },
{ "type": "Feature", "properties": { "name": "chi0348-0009" }, "geometry": { "type": "LineString", "coordinates": [ [ 778206.682920391438529, 6219962.75632768496871 ], [ 777881.213306158431806, 6220195.3289695084095 ] ] } },
{ "type": "Feature", "properties": { "name": "chi0348-0010" }, "geometry": { "type": "LineString", "coordinates": [ [ 778274.984626316581853, 6220067.885378254577518 ], [ 777920.704756189486943, 6220253.677234688773751 ] ] } },
{ "type": "Feature", "properties": { "name": "chi0348-0011" }, "geometry": { "type": "LineString", "coordinates": [ [ 778321.522700260393322, 6220180.208729063160717 ], [ 777949.366328144446015, 6220326.77965294662863 ] ] } },
{ "type": "Feature", "properties": { "name": "chi0348-0012" }, "geometry": { "type": "LineString", "coordinates": [ [ 778357.954419092973694, 6220275.509419793263078 ], [ 777984.295881862286478, 6220418.239620171487331 ] ] } },
{ "type": "Feature", "properties": { "name": "chi0348-0013" }, "geometry": { "type": "LineString", "coordinates": [ [ 778393.685129471356049, 6220368.943167342804372 ], [ 778019.930859225569293, 6220511.67728809826076 ] ] } },
{ "type": "Feature", "properties": { "name": "chi0348-0014" }, "geometry": { "type": "LineString", "coordinates": [ [ 778429.324178877519444, 6220462.379542272537947 ], [ 778055.655429851030931, 6220605.001191612333059 ] ] } },
{ "type": "Feature", "properties": { "name": "chi0348-0015" }, "geometry": { "type": "LineString", "coordinates": [ [ 778464.963831390719861, 6220555.815815875306726 ], [ 778091.291614174027927, 6220698.438656508922577 ] ] } },
{ "type": "Feature", "properties": { "name": "chi0348-0016" }, "geometry": { "type": "LineString", "coordinates": [ [ 778500.604086991399527, 6220649.251988152042031 ], [ 778126.928401633980684, 6220791.876020046882331 ] ] } },
{ "type": "Feature", "properties": { "name": "chi0348-0017" }, "geometry": { "type": "LineString", "coordinates": [ [ 778536.337214457802474, 6220742.685328939929605 ], [ 778162.658062171190977, 6220885.310555814765394 ] ] } },
{ "type": "Feature", "properties": { "name": "chi0348-0018" }, "geometry": { "type": "LineString", "coordinates": [ [ 778571.97867710958235, 6220836.121298301033676 ], [ 778198.296056781429797, 6220978.747716365382075 ] ] } },
{ "type": "Feature", "properties": { "name": "chi0348-0019" }, "geometry": { "type": "LineString", "coordinates": [ [ 778607.62074278621003, 6220929.557166354730725 ], [ 778233.934654465992935, 6221072.184775575995445 ] ] } },
{ "type": "Feature", "properties": { "name": "chi0348-0020" }, "geometry": { "type": "LineString", "coordinates": [ [ 778643.35568308189977, 6221022.990202071145177 ], [ 778269.573855204042047, 6221165.621733452193439 ] ] } },
{ "type": "Feature", "properties": { "name": "chi0348-0021" }, "geometry": { "type": "LineString", "coordinates": [ [ 778678.995671848999336, 6221116.314929561689496 ], [ 778305.305932691786438, 6221259.055862426757812 ] ] } },
{ "type": "Feature", "properties": { "name": "chi0348-0022" }, "geometry": { "type": "LineString", "coordinates": [ [ 778714.63954709819518, 6221209.750493453815579 ], [ 778340.946340413298458, 6221352.49261736869812 ] ] } },
{ "type": "Feature", "properties": { "name": "chi0348-0023" }, "geometry": { "type": "LineString", "coordinates": [ [ 778750.284025288885459, 6221303.185956068336964 ], [ 778376.587351125432178, 6221445.929270999506116 ] ] } },
{ "type": "Feature", "properties": { "name": "chi0348-0024" }, "geometry": { "type": "LineString", "coordinates": [ [ 778786.021381770726293, 6221396.618585206568241 ], [ 778412.317961116554216, 6221539.252157351002097 ] ] } },
{ "type": "Feature", "properties": { "name": "chi0348-0025" }, "geometry": { "type": "LineString", "coordinates": [ [ 778821.667066720314324, 6221490.053844993934035 ], [ 778447.960178371053189, 6221632.688608082011342 ] ] } },
{ "type": "Feature", "properties": { "name": "chi0348-0026" }, "geometry": { "type": "LineString", "coordinates": [ [ 778860.235803083982319, 6221591.730079638771713 ], [ 778480.684143506339751, 6221717.994722227565944 ] ] } },
{ "type": "Feature", "properties": { "name": "chi0348-0027" }, "geometry": { "type": "LineString", "coordinates": [ [ 778893.352861523162574, 6221708.890516160055995 ], [ 778502.082887354306877, 6221791.977088295854628 ] ] } },
{ "type": "Feature", "properties": { "name": "chi0348-0028" }, "geometry": { "type": "LineString", "coordinates": [ [ 778909.794794306624681, 6221821.215109864249825 ], [ 778513.853627990582027, 6221877.680747263133526 ] ] } },
{ "type": "Feature", "properties": { "name": "chi0348-0029" }, "geometry": { "type": "LineString", "coordinates": [ [ 778923.993755607865751, 6221920.170888183638453 ], [ 778527.956115341279656, 6221976.639581291005015 ] ] } },
{ "type": "Feature", "properties": { "name": "chi0348-0030" }, "geometry": { "type": "LineString", "coordinates": [ [ 778938.100605682004243, 6222019.129384186118841 ], [ 778542.062052321038209, 6222075.709337334148586 ] ] } },
{ "type": "Feature", "properties": { "name": "chi0348-0031" }, "geometry": { "type": "LineString", "coordinates": [ [ 778952.21091006626375, 6222118.198802390135825 ], [ 778556.257159517379478, 6222174.66541091632098 ] ] } },
{ "type": "Feature", "properties": { "name": "chi0348-0032" }, "geometry": { "type": "LineString", "coordinates": [ [ 778966.318096934584901, 6222217.157267458736897 ], [ 778570.363434564555064, 6222273.735135886818171 ] ] } },
{ "type": "Feature", "properties": { "name": "chi0348-0033" }, "geometry": { "type": "LineString", "coordinates": [ [ 778980.428738205926493, 6222316.226654713973403 ], [ 778584.466596846003085, 6222372.693907873705029 ] ] } },
{ "type": "Feature", "properties": { "name": "chi0348-0034" }, "geometry": { "type": "LineString", "coordinates": [ [ 778994.628547323169187, 6222415.182355243712664 ], [ 778598.569927566684783, 6222471.652664379216731 ] ] } },
{ "type": "Feature", "properties": { "name": "chi0348-0035" }, "geometry": { "type": "LineString", "coordinates": [ [ 779008.736240267870016, 6222514.140773843973875 ], [ 778612.768994922516868, 6222570.71961310505867 ] ] } },
{ "type": "Feature", "properties": { "name": "chi0348-0036" }, "geometry": { "type": "LineString", "coordinates": [ [ 779022.847387760644779, 6222613.210114618763328 ], [ 778626.872663527028635, 6222669.678338563069701 ] ] } },
{ "type": "Feature", "properties": { "name": "chi0348-0037" }, "geometry": { "type": "LineString", "coordinates": [ [ 779037.795326797524467, 6222718.694685271009803 ], [ 778640.140149987651967, 6222762.221785547211766 ] ] } },
{ "type": "Feature", "properties": { "name": "chi0348-0038" }, "geometry": { "type": "LineString", "coordinates": [ [ 779046.016177753219381, 6222824.711624862626195 ], [ 778647.141938307438977, 6222855.283667919225991 ] ] } }
]
}
