{
"type": "FeatureCollection",
"crs": { "type": "name", "properties": { "name": "urn:ogc:def:crs:EPSG::32718" } },
"features": [
{ "type": "Feature", "properties": { "name": "chi0353-0000" }, "geometry": { "type": "LineString", "coordinates": [ [ 778781.464209449710324, 6200132.717762666754425 ], [ 778390.515192375518382, 6200217.43202021997422 ] ] } },
{ "type": "Feature", "properties": { "name": "chi0353-0001" }, "geometry": { "type": "LineString", "coordinates": [ [ 778802.835434377426282, 6200231.349384610541165 ], [ 778411.553237146930769, 6200314.297453531064093 ] ] } },
{ "type": "Feature", "properties": { "name": "chi0353-0002" }, "geometry": { "type": "LineString", "coordinates": [ [ 778827.270871272892691, 6200361.646783358417451 ], [ 778427.684384492458776, 6200379.44090118445456 ] ] } },
{ "type": "Feature", "properties": { "name": "chi0353-0003" }, "geometry": { "type": "LineString", "coordinates": [ [ 778815.904707374051213, 6200474.912537179887295 ], [ 778416.039864191086963, 6200464.954340799711645 ] ] } },
{ "type": "Feature", "properties": { "name": "chi0353-0004" }, "geometry": { "type": "LineString", "coordinates": [ [ 778821.504846518160775, 6200548.364441467449069 ], [ 778423.626844675280154, 6200589.757911648601294 ] ] } },
{ "type": "Feature", "properties": { "name": "chi0353-0005" }, "geometry": { "type": "LineString", "coordinates": [ [ 778836.493731800816022, 6200661.621450928971171 ], [ 778436.656934056431055, 6200674.536508940160275 ] ] } },
{ "type": "Feature", "properties": { "name": "chi0353-0006" }, "geometry": { "type": "LineString", "coordinates": [ [ 778828.337855530786328, 6200783.674522711895406 ], [ 778429.555083587300032, 6200751.697759194299579 ] ] } },
{ "type": "Feature", "properties": { "name": "chi0353-0007" }, "geometry": { "type": "LineString", "coordinates": [ [ 778818.512657472514547, 6200896.116924047470093 ], [ 778422.651668951846659, 6200838.624469079077244 ] ] } },
{ "type": "Feature", "properties": { "name": "chi0353-0008" }, "geometry": { "type": "LineString", "coordinates": [ [ 778796.075553547590971, 6201005.93725155107677 ], [ 778404.383299017325044, 6200924.557073494419456 ] ] } },
{ "type": "Feature", "properties": { "name": "chi0353-0009" }, "geometry": { "type": "LineString", "coordinates": [ [ 778775.681167471222579, 6201103.926432302221656 ], [ 778384.073955877334811, 6201022.431479951366782 ] ] } },
{ "type": "Feature", "properties": { "name": "chi0353-0010" }, "geometry": { "type": "LineString", "coordinates": [ [ 778755.772553088725545, 6201199.680253883823752 ], [ 778363.274357478599995, 6201122.430110323242843 ] ] } },
{ "type": "Feature", "properties": { "name": "chi0353-0011" }, "geometry": { "type": "LineString", "coordinates": [ [ 778738.543079826980829, 6201292.578153654932976 ], [ 778344.059686887427233, 6201226.156766973435879 ] ] } },
{ "type": "Feature", "properties": { "name": "chi0353-0012" }, "geometry": { "type": "LineString", "coordinates": [ [ 778724.066094317124225, 6201388.169911202043295 ], [ 778328.573418486164883, 6201328.217824568971992 ] ] } },
{ "type": "Feature", "properties": { "name": "chi0353-0013" }, "geometry": { "type": "LineString", "coordinates": [ [ 778709.043321192031726, 6201487.109030764549971 ], [ 778313.546708378009498, 6201427.15605684183538 ] ] } },
{ "type": "Feature", "properties": { "name": "chi0353-0014" }, "geometry": { "type": "LineString", "coordinates": [ [ 778694.112184141995385, 6201586.045348623767495 ], [ 778298.60833238135092, 6201525.980551199056208 ] ] } },
{ "type": "Feature", "properties": { "name": "chi0353-0015" }, "geometry": { "type": "LineString", "coordinates": [ [ 778678.851944815600291, 6201686.323866106569767 ], [ 778283.810763850458898, 6201623.357287855818868 ] ] } },
{ "type": "Feature", "properties": { "name": "chi0353-0016" }, "geometry": { "type": "LineString", "coordinates": [ [ 778662.111317022237927, 6201786.424338249489665 ], [ 778267.532857111073099, 6201720.555921467021108 ] ] } },
{ "type": "Feature", "properties": { "name": "chi0353-0017" }, "geometry": { "type": "LineString", "coordinates": [ [ 778645.603488415945321, 6201885.074292066507041 ], [ 778251.017846644972451, 6201819.093990460038185 ] ] } },
{ "type": "Feature", "properties": { "name": "chi0353-0018" }, "geometry": { "type": "LineString", "coordinates": [ [ 778629.09518630860839, 6201983.724181173369288 ], [ 778234.597746957093477, 6201917.74019568040967 ] ] } },
{ "type": "Feature", "properties": { "name": "chi0353-0019" }, "geometry": { "type": "LineString", "coordinates": [ [ 778612.034333242685534, 6202085.499528320506215 ], [ 778218.637290855287574, 6202013.263583852909505 ] ] } },
{ "type": "Feature", "properties": { "name": "chi0353-0020" }, "geometry": { "type": "LineString", "coordinates": [ [ 778591.500122172292322, 6202188.266541357152164 ], [ 778199.936626877402887, 6202106.536593580618501 ] ] } },
{ "type": "Feature", "properties": { "name": "chi0353-0021" }, "geometry": { "type": "LineString", "coordinates": [ [ 778569.942040087189525, 6202287.621745221316814 ], [ 778179.019096660427749, 6202202.762428608722985 ] ] } },
{ "type": "Feature", "properties": { "name": "chi0353-0022" }, "geometry": { "type": "LineString", "coordinates": [ [ 778548.794268919504248, 6202385.299046130850911 ], [ 778157.867640189942904, 6202300.438610047101974 ] ] } },
{ "type": "Feature", "properties": { "name": "chi0353-0023" }, "geometry": { "type": "LineString", "coordinates": [ [ 778525.002936628414318, 6202493.270473977550864 ], [ 778139.17811835417524, 6202387.937035864219069 ] ] } },
{ "type": "Feature", "properties": { "name": "chi0353-0024" }, "geometry": { "type": "LineString", "coordinates": [ [ 778489.2589613070013, 6202602.263792606070638 ], [ 778112.262041921727359, 6202468.462470434606075 ] ] } },
{ "type": "Feature", "properties": { "name": "chi0353-0025" }, "geometry": { "type": "LineString", "coordinates": [ [ 778452.253019054420292, 6202699.857494524680078 ], [ 778078.327540785539895, 6202557.857337210327387 ] ] } },
{ "type": "Feature", "properties": { "name": "chi0353-0026" }, "geometry": { "type": "LineString", "coordinates": [ [ 778416.781712654628791, 6202793.296883208677173 ], [ 778042.853356794454157, 6202651.295124359428883 ] ] } },
{ "type": "Feature", "properties": { "name": "chi0353-0027" }, "geometry": { "type": "LineString", "coordinates": [ [ 778381.651564268162474, 6202885.837601111270487 ], [ 778006.94757315388415, 6202745.744859956204891 ] ] } },
{ "type": "Feature", "properties": { "name": "chi0353-0028" }, "geometry": { "type": "LineString", "coordinates": [ [ 778347.80003866716288, 6202978.006957719102502 ], [ 777971.81395609723404, 6202841.392849467694759 ] ] } },
{ "type": "Feature", "properties": { "name": "chi0353-0029" }, "geometry": { "type": "LineString", "coordinates": [ [ 778314.257028763880953, 6203071.27731909416616 ], [ 777937.761567742796615, 6202936.231244156137109 ] ] } }
]
}
