{
"type": "FeatureCollection",
"crs": { "type": "name", "properties": { "name": "urn:ogc:def:crs:EPSG::32718" } },
"features": [
{ "type": "Feature", "properties": { "name": "chi0347-0000" }, "geometry": { "type": "LineString", "coordinates": [ [ 780061.532693403540179, 6223840.533655168488622 ], [ 780291.959557147114538, 6224167.568141117691994 ] ] } },
{ "type": "Feature", "properties": { "name": "chi0347-0001" }, "geometry": { "type": "LineString", "coordinates": [ [ 780161.017975826747715, 6223771.843112707138062 ], [ 780355.805748792015947, 6224121.254605270922184 ] ] } },
{ "type": "Feature", "properties": { "name": "chi0347-0002" }, "geometry": { "type": "LineString", "coordinates": [ [ 780307.795515204081312, 6223712.293110141530633 ], [ 780390.573731339070946, 6224103.675857115536928 ] ] } },
{ "type": "Feature", "properties": { "name": "chi0347-0003" }, "geometry": { "type": "LineString", "coordinates": [ [ 780474.039346704026684, 6223707.790468912571669 ], [ 780424.231418441049755, 6224104.673058674670756 ] ] } },
{ "type": "Feature", "properties": { "name": "chi0347-0004" }, "geometry": { "type": "LineString", "coordinates": [ [ 780599.997014149557799, 6223740.238392692059278 ], [ 780490.707101770560257, 6224125.013087585568428 ] ] } },
{ "type": "Feature", "properties": { "name": "chi0347-0005" }, "geometry": { "type": "LineString", "coordinates": [ [ 780706.618747551110573, 6223771.706225765869021 ], [ 780575.977031655376777, 6224149.789800806902349 ] ] } },
{ "type": "Feature", "properties": { "name": "chi0347-0006" }, "geometry": { "type": "LineString", "coordinates": [ [ 780826.791217935038731, 6223820.757053457200527 ], [ 780639.621958037954755, 6224174.32146685756743 ] ] } },
{ "type": "Feature", "properties": { "name": "chi0347-0007" }, "geometry": { "type": "LineString", "coordinates": [ [ 780930.83072546182666, 6223889.496810344979167 ], [ 780701.508141469093971, 6224217.337181622162461 ] ] } },
{ "type": "Feature", "properties": { "name": "chi0347-0008" }, "geometry": { "type": "LineString", "coordinates": [ [ 781034.10129167418927, 6223966.475223861634731 ], [ 780759.422264915308915, 6224257.250808294862509 ] ] } },
{ "type": "Feature", "properties": { "name": "chi0347-0009" }, "geometry": { "type": "LineString", "coordinates": [ [ 781113.218481077346951, 6224060.606649556197226 ], [ 780806.96076221682597, 6224317.904004300013185 ] ] } },
{ "type": "Feature", "properties": { "name": "chi0347-0010" }, "geometry": { "type": "LineString", "coordinates": [ [ 781176.379245244665071, 6224133.894503274932504 ], [ 780874.330662915599532, 6224396.065023557282984 ] ] } },
{ "type": "Feature", "properties": { "name": "chi0347-0011" }, "geometry": { "type": "LineString", "coordinates": [ [ 781242.857689239317551, 6224209.96998044475913 ], [ 780939.469462228007615, 6224470.627947563305497 ] ] } },
{ "type": "Feature", "properties": { "name": "chi0347-0012" }, "geometry": { "type": "LineString", "coordinates": [ [ 781315.180130502558313, 6224296.086072130128741 ], [ 780996.056830563116819, 6224537.228726848959923 ] ] } },
{ "type": "Feature", "properties": { "name": "chi0347-0013" }, "geometry": { "type": "LineString", "coordinates": [ [ 781377.32120007823687, 6224387.724433558993042 ], [ 781045.755548478569835, 6224611.36306519061327 ] ] } },
{ "type": "Feature", "properties": { "name": "chi0347-0014" }, "geometry": { "type": "LineString", "coordinates": [ [ 781433.29073522053659, 6224470.663780632428825 ], [ 781101.63075597921852, 6224694.307002699002624 ] ] } },
{ "type": "Feature", "properties": { "name": "chi0347-0015" }, "geometry": { "type": "LineString", "coordinates": [ [ 781489.360126679297537, 6224553.821970457211137 ], [ 781157.404647119343281, 6224776.920602433383465 ] ] } },
{ "type": "Feature", "properties": { "name": "chi0347-0016" }, "geometry": { "type": "LineString", "coordinates": [ [ 781546.60773765691556, 6224639.276502216234803 ], [ 781211.461597195710056, 6224857.697544747032225 ] ] } },
{ "type": "Feature", "properties": { "name": "chi0347-0017" }, "geometry": { "type": "LineString", "coordinates": [ [ 781601.489406844950281, 6224725.911828553304076 ], [ 781263.623898406745866, 6224939.974265179596841 ] ] } },
{ "type": "Feature", "properties": { "name": "chi0347-0018" }, "geometry": { "type": "LineString", "coordinates": [ [ 781655.013368013314903, 6224810.366736708208919 ], [ 781317.145630565704778, 6225024.430946671403944 ] ] } },
{ "type": "Feature", "properties": { "name": "chi0347-0019" }, "geometry": { "type": "LineString", "coordinates": [ [ 781708.538219320587814, 6224894.821393949910998 ], [ 781370.671563915442675, 6225108.998315492644906 ] ] } },
{ "type": "Feature", "properties": { "name": "chi0347-0020" }, "geometry": { "type": "LineString", "coordinates": [ [ 781764.29656799742952, 6224982.873309852555394 ], [ 781421.962567022652365, 6225189.856911357492208 ] ] } },
{ "type": "Feature", "properties": { "name": "chi0347-0021" }, "geometry": { "type": "LineString", "coordinates": [ [ 781818.576643409905955, 6225077.076241901144385 ], [ 781467.467925134231336, 6225268.778324366547167 ] ] } },
{ "type": "Feature", "properties": { "name": "chi0347-0022" }, "geometry": { "type": "LineString", "coordinates": [ [ 781866.629532584222034, 6225170.021642036736012 ], [ 781511.115278984652832, 6225353.528991744853556 ] ] } },
{ "type": "Feature", "properties": { "name": "chi0347-0023" }, "geometry": { "type": "LineString", "coordinates": [ [ 781912.529600247042254, 6225258.92285243049264 ], [ 781557.012513294816017, 6225442.431748300790787 ] ] } },
{ "type": "Feature", "properties": { "name": "chi0347-0024" }, "geometry": { "type": "LineString", "coordinates": [ [ 781958.338130789110437, 6225347.826645968481898 ], [ 781602.907213318278082, 6225531.223388861864805 ] ] } },
{ "type": "Feature", "properties": { "name": "chi0347-0025" }, "geometry": { "type": "LineString", "coordinates": [ [ 782004.23975553479977, 6225436.727501482702792 ], [ 781648.713686620350927, 6225620.128547641448677 ] ] } },
{ "type": "Feature", "properties": { "name": "chi0347-0026" }, "geometry": { "type": "LineString", "coordinates": [ [ 782050.04652273375541, 6225525.520002440549433 ], [ 781694.613256591488607, 6225709.030771581456065 ] ] } },
{ "type": "Feature", "properties": { "name": "chi0347-0027" }, "geometry": { "type": "LineString", "coordinates": [ [ 782095.949704026104882, 6225614.420503108762205 ], [ 781740.513605516869575, 6225797.932817874476314 ] ] } },
{ "type": "Feature", "properties": { "name": "chi0347-0028" }, "geometry": { "type": "LineString", "coordinates": [ [ 782141.853664226597175, 6225703.320826173759997 ], [ 781786.319097008090466, 6225886.726506935432553 ] ] } },
{ "type": "Feature", "properties": { "name": "chi0347-0029" }, "geometry": { "type": "LineString", "coordinates": [ [ 782189.628692249883898, 6225796.051327743567526 ], [ 781830.255200990010053, 6225971.68960031401366 ] ] } },
{ "type": "Feature", "properties": { "name": "chi0347-0030" }, "geometry": { "type": "LineString", "coordinates": [ [ 782235.473748589633033, 6225895.279624636285007 ], [ 781868.197132907691412, 6226053.944739976897836 ] ] } },
{ "type": "Feature", "properties": { "name": "chi0347-0031" }, "geometry": { "type": "LineString", "coordinates": [ [ 782277.403571120230481, 6225999.5106385294348 ], [ 781901.028678044676781, 6226135.2421631552279 ] ] } },
{ "type": "Feature", "properties": { "name": "chi0347-0032" }, "geometry": { "type": "LineString", "coordinates": [ [ 782310.530223539797589, 6226102.894686633720994 ], [ 781928.764025566168129, 6226222.243735897354782 ] ] } },
{ "type": "Feature", "properties": { "name": "chi0347-0033" }, "geometry": { "type": "LineString", "coordinates": [ [ 782342.510386436944827, 6226208.089599864557385 ], [ 781955.269708960317075, 6226308.282686731778085 ] ] } },
{ "type": "Feature", "properties": { "name": "chi0347-0034" }, "geometry": { "type": "LineString", "coordinates": [ [ 782367.741419535363093, 6226328.587684591300786 ], [ 781971.245095271733589, 6226382.089182008057833 ] ] } },
{ "type": "Feature", "properties": { "name": "chi0347-0035" }, "geometry": { "type": "LineString", "coordinates": [ [ 782375.149097449146211, 6226443.29019976221025 ], [ 781975.820163901778869, 6226467.118175349198282 ] ] } },
{ "type": "Feature", "properties": { "name": "chi0347-0036" }, "geometry": { "type": "LineString", "coordinates": [ [ 782381.09611275838688, 6226543.157348421402276 ], [ 781981.762923340545967, 6226566.985297377221286 ] ] } },
{ "type": "Feature", "properties": { "name": "chi0347-0037" }, "geometry": { "type": "LineString", "coordinates": [ [ 782386.891008836450055, 6226641.03035905957222 ], [ 781987.854386340361089, 6226668.735601587221026 ] ] } },
{ "type": "Feature", "properties": { "name": "chi0347-0038" }, "geometry": { "type": "LineString", "coordinates": [ [ 782394.61486426088959, 6226738.512498149648309 ], [ 781995.888091165805236, 6226770.538869762793183 ] ] } },
{ "type": "Feature", "properties": { "name": "chi0347-0039" }, "geometry": { "type": "LineString", "coordinates": [ [ 782402.767859105020761, 6226837.98046426102519 ], [ 782004.050112840370275, 6226870.450656425207853 ] ] } }
]
}
