{
"type": "FeatureCollection",
"crs": { "type": "name", "properties": { "name": "urn:ogc:def:crs:EPSG::32718" } },
"features": [
{ "type": "Feature", "properties": { "name": "chi0358-0000" }, "geometry": { "type": "LineString", "coordinates": [ [ 771508.554064585128799, 6167821.175805570557714 ], [ 771111.326532916165888, 6167773.870393037796021 ] ] } },
{ "type": "Feature", "properties": { "name": "chi0358-0001" }, "geometry": { "type": "LineString", "coordinates": [ [ 771496.315122950007208, 6167923.467534886673093 ], [ 771099.920161319663748, 6167870.251843558624387 ] ] } },
{ "type": "Feature", "properties": { "name": "chi0358-0002" }, "geometry": { "type": "LineString", "coordinates": [ [ 771479.788759065093473, 6168032.991468344815075 ], [ 771086.890101775177754, 6167958.242032507434487 ] ] } },
{ "type": "Feature", "properties": { "name": "chi0358-0003" }, "geometry": { "type": "LineString", "coordinates": [ [ 771455.782189508434385, 6168137.960288105532527 ], [ 771066.018479360034689, 6168048.127583952620625 ] ] } },
{ "type": "Feature", "properties": { "name": "chi0358-0004" }, "geometry": { "type": "LineString", "coordinates": [ [ 771433.299951317021623, 6168235.444738046266139 ], [ 771043.529311226680875, 6168145.499918850138783 ] ] } },
{ "type": "Feature", "properties": { "name": "chi0358-0005" }, "geometry": { "type": "LineString", "coordinates": [ [ 771410.321987479925156, 6168334.831255255267024 ], [ 771021.534756769426167, 6168240.970017980784178 ] ] } },
{ "type": "Feature", "properties": { "name": "chi0358-0006" }, "geometry": { "type": "LineString", "coordinates": [ [ 771385.242965261917561, 6168434.612417881377041 ], [ 770997.757431957637891, 6168335.159806403331459 ] ] } },
{ "type": "Feature", "properties": { "name": "chi0358-0007" }, "geometry": { "type": "LineString", "coordinates": [ [ 771359.895150743657723, 6168531.514366350136697 ], [ 770972.579808060312644, 6168431.722273887135088 ] ] } },
{ "type": "Feature", "properties": { "name": "chi0358-0008" }, "geometry": { "type": "LineString", "coordinates": [ [ 771337.645269884844311, 6168618.220921114087105 ], [ 770945.596825528424233, 6168538.774947920814157 ] ] } },
{ "type": "Feature", "properties": { "name": "chi0358-0009" }, "geometry": { "type": "LineString", "coordinates": [ [ 771324.589489917270839, 6168705.323894871398807 ], [ 770928.544068898423575, 6168649.422876784577966 ] ] } },
{ "type": "Feature", "properties": { "name": "chi0358-0010" }, "geometry": { "type": "LineString", "coordinates": [ [ 771313.218074525939301, 6168790.378741387277842 ], [ 770914.22301895939745, 6168762.433511462062597 ] ] } },
{ "type": "Feature", "properties": { "name": "chi0358-0011" }, "geometry": { "type": "LineString", "coordinates": [ [ 771312.234615797176957, 6168888.342262016609311 ], [ 770912.985355613520369, 6168864.40137492865324 ] ] } },
{ "type": "Feature", "properties": { "name": "chi0358-0012" }, "geometry": { "type": "LineString", "coordinates": [ [ 771298.80702760652639, 6169009.766440015286207 ], [ 770904.682262421352789, 6168941.481875007972121 ] ] } },
{ "type": "Feature", "properties": { "name": "chi0358-0013" }, "geometry": { "type": "LineString", "coordinates": [ [ 771272.686153483577073, 6169121.125302091240883 ], [ 770884.521660287864506, 6169024.461412459611893 ] ] } },
{ "type": "Feature", "properties": { "name": "chi0358-0014" }, "geometry": { "type": "LineString", "coordinates": [ [ 771247.01946988911368, 6169219.812488147988915 ], [ 770859.933703943155706, 6169119.340365356765687 ] ] } },
{ "type": "Feature", "properties": { "name": "chi0358-0015" }, "geometry": { "type": "LineString", "coordinates": [ [ 771221.939125133911148, 6169316.594720060005784 ], [ 770834.758059710031375, 6169216.124016730114818 ] ] } },
{ "type": "Feature", "properties": { "name": "chi0358-0016" }, "geometry": { "type": "LineString", "coordinates": [ [ 771196.772887508850545, 6169413.601411560550332 ], [ 770809.667035814141855, 6169312.682985732331872 ] ] } },
{ "type": "Feature", "properties": { "name": "chi0358-0017" }, "geometry": { "type": "LineString", "coordinates": [ [ 771171.330730876419693, 6169510.616057567298412 ], [ 770784.388612208305858, 6169409.136271735653281 ] ] } },
{ "type": "Feature", "properties": { "name": "chi0358-0018" }, "geometry": { "type": "LineString", "coordinates": [ [ 771145.88142325473018, 6169607.408705023117363 ], [ 770759.021036425605416, 6169505.703070187941194 ] ] } },
{ "type": "Feature", "properties": { "name": "chi0358-0019" }, "geometry": { "type": "LineString", "coordinates": [ [ 771120.428217993932776, 6169704.090295474976301 ], [ 770733.659310149494559, 6169602.491636319085956 ] ] } },
{ "type": "Feature", "properties": { "name": "chi0358-0020" }, "geometry": { "type": "LineString", "coordinates": [ [ 771095.06937882816419, 6169800.880023251287639 ], [ 770708.201932822586969, 6169699.171830975450575 ] ] } },
{ "type": "Feature", "properties": { "name": "chi0358-0021" }, "geometry": { "type": "LineString", "coordinates": [ [ 771069.614882251247764, 6169897.56138288974762 ], [ 770682.743909658398479, 6169795.851910099387169 ] ] } },
{ "type": "Feature", "properties": { "name": "chi0358-0022" }, "geometry": { "type": "LineString", "coordinates": [ [ 771044.251503243576735, 6169994.239939093589783 ], [ 770657.380247996305116, 6169892.640130788087845 ] ] } },
{ "type": "Feature", "properties": { "name": "chi0358-0023" }, "geometry": { "type": "LineString", "coordinates": [ [ 771018.795715836808085, 6170090.921067945659161 ], [ 770631.920933742425404, 6169989.319979140534997 ] ] } },
{ "type": "Feature", "properties": { "name": "chi0358-0024" }, "geometry": { "type": "LineString", "coordinates": [ [ 770993.011206833645701, 6170188.944125827401876 ], [ 770606.884107044665143, 6170084.765941769815981 ] ] } },
{ "type": "Feature", "properties": { "name": "chi0358-0025" }, "geometry": { "type": "LineString", "coordinates": [ [ 770964.937560854712501, 6170290.365163396112621 ], [ 770581.634864081628621, 6170176.109653541818261 ] ] } },
{ "type": "Feature", "properties": { "name": "chi0358-0026" }, "geometry": { "type": "LineString", "coordinates": [ [ 770933.393082307185978, 6170389.333817914128304 ], [ 770552.347323207883164, 6170267.571300078183413 ] ] } },
{ "type": "Feature", "properties": { "name": "chi0358-0027" }, "geometry": { "type": "LineString", "coordinates": [ [ 770902.933636621688493, 6170484.606329483911395 ], [ 770521.884630911750719, 6170362.842358812689781 ] ] } },
{ "type": "Feature", "properties": { "name": "chi0358-0028" }, "geometry": { "type": "LineString", "coordinates": [ [ 770872.470209557679482, 6170579.76774866040796 ], [ 770491.512971966294572, 6170458.110584252513945 ] ] } },
{ "type": "Feature", "properties": { "name": "chi0358-0029" }, "geometry": { "type": "LineString", "coordinates": [ [ 770842.009295475785621, 6170675.039957860484719 ], [ 770461.045569831854664, 6170553.270399954169989 ] ] } },
{ "type": "Feature", "properties": { "name": "chi0358-0030" }, "geometry": { "type": "LineString", "coordinates": [ [ 770812.31191211764235, 6170768.179968100041151 ], [ 770429.908108699135482, 6170650.670336008071899 ] ] } },
{ "type": "Feature", "properties": { "name": "chi0358-0031" }, "geometry": { "type": "LineString", "coordinates": [ [ 770785.315056435065344, 6170859.464233305305243 ], [ 770400.328959480975755, 6170751.133565498515964 ] ] } },
{ "type": "Feature", "properties": { "name": "chi0358-0032" }, "geometry": { "type": "LineString", "coordinates": [ [ 770760.145625899313018, 6170953.581839419901371 ], [ 770373.738620887044817, 6170850.176892755553126 ] ] } },
{ "type": "Feature", "properties": { "name": "chi0358-0033" }, "geometry": { "type": "LineString", "coordinates": [ [ 770734.312770844204351, 6171050.161510638892651 ], [ 770347.90550176857505, 6170946.866211900487542 ] ] } },
{ "type": "Feature", "properties": { "name": "chi0358-0034" }, "geometry": { "type": "LineString", "coordinates": [ [ 770708.479263414163142, 6171146.741063853725791 ], [ 770322.068489687750116, 6171043.444472092203796 ] ] } },
{ "type": "Feature", "properties": { "name": "chi0358-0035" }, "geometry": { "type": "LineString", "coordinates": [ [ 770682.648347555892542, 6171243.431440106593072 ], [ 770296.230825323611498, 6171140.022614303976297 ] ] } },
{ "type": "Feature", "properties": { "name": "chi0358-0036" }, "geometry": { "type": "LineString", "coordinates": [ [ 770656.813535012654029, 6171340.010757301002741 ], [ 770270.392508695367724, 6171236.600638534873724 ] ] } },
{ "type": "Feature", "properties": { "name": "chi0358-0037" }, "geometry": { "type": "LineString", "coordinates": [ [ 770630.978070150362328, 6171436.589956495910883 ], [ 770244.553539822576568, 6171333.178544784896076 ] ] } },
{ "type": "Feature", "properties": { "name": "chi0358-0038" }, "geometry": { "type": "LineString", "coordinates": [ [ 770604.643165052868426, 6171534.960188677534461 ], [ 770219.212771116872318, 6171427.965206815861166 ] ] } },
{ "type": "Feature", "properties": { "name": "chi0358-0039" }, "geometry": { "type": "LineString", "coordinates": [ [ 770576.455782880773768, 6171632.829238573089242 ], [ 770192.111401757458225, 6171522.247942860238254 ] ] } }
]
}
