{
"type": "FeatureCollection",
"crs": { "type": "name", "properties": { "name": "urn:ogc:def:crs:EPSG::32718" } },
"features": [
{ "type": "Feature", "properties": { "name": "chi0352-0000" }, "geometry": { "type": "LineString", "coordinates": [ [ 778163.644029907882214, 6208258.757036593742669 ], [ 777764.4544630239252, 6208285.695329640060663 ] ] } },
{ "type": "Feature", "properties": { "name": "chi0352-0001" }, "geometry": { "type": "LineString", "coordinates": [ [ 778170.543043574783951, 6208376.251351831480861 ], [ 777770.701452361186966, 6208362.680508494377136 ] ] } },
{ "type": "Feature", "properties": { "name": "chi0352-0002" }, "geometry": { "type": "LineString", "coordinates": [ [ 778153.111712451092899, 6208509.901710140518844 ], [ 777761.642554106190801, 6208427.350028779357672 ] ] } },
{ "type": "Feature", "properties": { "name": "chi0352-0003" }, "geometry": { "type": "LineString", "coordinates": [ [ 778119.583059181692079, 6208626.374680751934648 ], [ 777739.67254841234535, 6208501.39599297568202 ] ] } },
{ "type": "Feature", "properties": { "name": "chi0352-0004" }, "geometry": { "type": "LineString", "coordinates": [ [ 778084.088706742972136, 6208723.252247475087643 ], [ 777706.294739930192009, 6208591.991097755730152 ] ] } },
{ "type": "Feature", "properties": { "name": "chi0352-0005" }, "geometry": { "type": "LineString", "coordinates": [ [ 778052.371718565002084, 6208820.017569623887539 ], [ 777675.759545437991619, 6208685.166684998199344 ] ] } },
{ "type": "Feature", "properties": { "name": "chi0352-0006" }, "geometry": { "type": "LineString", "coordinates": [ [ 778014.239487118786201, 6208918.194337791763246 ], [ 777641.389771493733861, 6208773.459031781181693 ] ] } },
{ "type": "Feature", "properties": { "name": "chi0352-0007" }, "geometry": { "type": "LineString", "coordinates": [ [ 777976.965387717587873, 6209014.235725436359644 ], [ 777606.341175854671746, 6208863.769928274676204 ] ] } },
{ "type": "Feature", "properties": { "name": "chi0352-0008" }, "geometry": { "type": "LineString", "coordinates": [ [ 777936.70860100002028, 6209109.254927141591907 ], [ 777568.491112576797605, 6208952.942156586796045 ] ] } },
{ "type": "Feature", "properties": { "name": "chi0352-0009" }, "geometry": { "type": "LineString", "coordinates": [ [ 777897.563428563531488, 6209201.353974441066384 ], [ 777529.432188421254978, 6209044.925832683220506 ] ] } },
{ "type": "Feature", "properties": { "name": "chi0352-0010" }, "geometry": { "type": "LineString", "coordinates": [ [ 777858.420680170413107, 6209293.563736655749381 ], [ 777490.369120766408741, 6209136.79834701679647 ] ] } },
{ "type": "Feature", "properties": { "name": "chi0352-0011" }, "geometry": { "type": "LineString", "coordinates": [ [ 777818.915013680700213, 6209386.006073800846934 ], [ 777451.295346163213253, 6209228.337822215631604 ] ] } },
{ "type": "Feature", "properties": { "name": "chi0352-0012" }, "geometry": { "type": "LineString", "coordinates": [ [ 777779.303171050036326, 6209478.007157787680626 ], [ 777411.855374184786342, 6209319.998918732628226 ] ] } },
{ "type": "Feature", "properties": { "name": "chi0352-0013" }, "geometry": { "type": "LineString", "coordinates": [ [ 777739.779330499935895, 6209569.894345197826624 ], [ 777372.325662977178581, 6209411.773453449830413 ] ] } },
{ "type": "Feature", "properties": { "name": "chi0352-0014" }, "geometry": { "type": "LineString", "coordinates": [ [ 777701.377138360869139, 6209659.19423671066761 ], [ 777331.767933831666596, 6209506.242993743158877 ] ] } },
{ "type": "Feature", "properties": { "name": "chi0352-0015" }, "geometry": { "type": "LineString", "coordinates": [ [ 777668.142055579228327, 6209742.344963807612658 ], [ 777291.080114244949073, 6209608.821713514626026 ] ] } },
{ "type": "Feature", "properties": { "name": "chi0352-0016" }, "geometry": { "type": "LineString", "coordinates": [ [ 777637.038114618975669, 6209841.421594860032201 ], [ 777262.705574125167914, 6209700.487752901390195 ] ] } },
{ "type": "Feature", "properties": { "name": "chi0352-0017" }, "geometry": { "type": "LineString", "coordinates": [ [ 777592.095720846322365, 6209943.572493088431656 ], [ 777226.534173228079453, 6209781.16952979657799 ] ] } },
{ "type": "Feature", "properties": { "name": "chi0352-0018" }, "geometry": { "type": "LineString", "coordinates": [ [ 777551.445234614075162, 6210034.936625402420759 ], [ 777185.881182191427797, 6209872.531917877495289 ] ] } },
{ "type": "Feature", "properties": { "name": "chi0352-0019" }, "geometry": { "type": "LineString", "coordinates": [ [ 777510.886029201792553, 6210126.297792950645089 ], [ 777145.322748334147036, 6209964.002283232286572 ] ] } },
{ "type": "Feature", "properties": { "name": "chi0352-0020" }, "geometry": { "type": "LineString", "coordinates": [ [ 777470.32594248931855, 6210217.658723467960954 ], [ 777104.760154486284591, 6210055.361473040655255 ] ] } },
{ "type": "Feature", "properties": { "name": "chi0352-0021" }, "geometry": { "type": "LineString", "coordinates": [ [ 777429.244791880948469, 6210310.14515814371407 ], [ 777064.628005540929735, 6210145.708367707207799 ] ] } },
{ "type": "Feature", "properties": { "name": "chi0352-0022" }, "geometry": { "type": "LineString", "coordinates": [ [ 777385.657526377239265, 6210405.259248097427189 ], [ 777024.939860430546105, 6210232.377730518579483 ] ] } },
{ "type": "Feature", "properties": { "name": "chi0352-0023" }, "geometry": { "type": "LineString", "coordinates": [ [ 777339.317706610192545, 6210497.789564650505781 ], [ 776981.640069062588736, 6210318.598315238021314 ] ] } },
{ "type": "Feature", "properties": { "name": "chi0352-0024" }, "geometry": { "type": "LineString", "coordinates": [ [ 777294.455206651124172, 6210587.277928746305406 ], [ 776936.864283751463518, 6210407.97117077652365 ] ] } },
{ "type": "Feature", "properties": { "name": "chi0352-0025" }, "geometry": { "type": "LineString", "coordinates": [ [ 777252.897477411199361, 6210670.006196537986398 ], [ 776888.873849260387942, 6210504.100705499760807 ] ] } },
{ "type": "Feature", "properties": { "name": "chi0352-0026" }, "geometry": { "type": "LineString", "coordinates": [ [ 777223.424552207579836, 6210740.274257289245725 ], [ 776842.686684044310823, 6210617.60915463976562 ] ] } },
{ "type": "Feature", "properties": { "name": "chi0352-0027" }, "geometry": { "type": "LineString", "coordinates": [ [ 777203.380066005280241, 6210826.807854942977428 ], [ 776816.443880717386492, 6210725.532213003374636 ] ] } },
{ "type": "Feature", "properties": { "name": "chi0352-0028" }, "geometry": { "type": "LineString", "coordinates": [ [ 777165.929500405443832, 6210951.829630414023995 ], [ 776798.874420170905069, 6210792.893586445599794 ] ] } },
{ "type": "Feature", "properties": { "name": "chi0352-0029" }, "geometry": { "type": "LineString", "coordinates": [ [ 777102.994297543889843, 6211060.504416793584824 ], [ 776759.658715786412358, 6210855.119659669697285 ] ] } }
]
}
