{
"type": "FeatureCollection",
"crs": { "type": "name", "properties": { "name": "urn:ogc:def:crs:EPSG::32718" } },
"features": [
{ "type": "Feature", "properties": { "name": "chi0354-0000" }, "geometry": { "type": "LineString", "coordinates": [ [ 774584.453950300812721, 6191092.85711323749274 ], [ 774614.524393900763243, 6191491.70159424841404 ] ] } },
{ "type": "Feature", "properties": { "name": "chi0354-0001" }, "geometry": { "type": "LineString", "coordinates": [ [ 774684.204219831852242, 6191085.365088690072298 ], [ 774714.18698597420007, 6191484.212229455821216 ] ] } },
{ "type": "Feature", "properties": { "name": "chi0354-0002" }, "geometry": { "type": "LineString", "coordinates": [ [ 774783.494555022101849, 6191077.885547002777457 ], [ 774814.309408390079625, 6191476.708230555057526 ] ] } },
{ "type": "Feature", "properties": { "name": "chi0354-0003" }, "geometry": { "type": "LineString", "coordinates": [ [ 774881.303420130745508, 6191070.115524055436254 ], [ 774915.887062655878253, 6191468.605040231719613 ] ] } },
{ "type": "Feature", "properties": { "name": "chi0354-0004" }, "geometry": { "type": "LineString", "coordinates": [ [ 774979.437560147838667, 6191060.891388790681958 ], [ 775016.962195807602257, 6191459.072081798687577 ] ] } },
{ "type": "Feature", "properties": { "name": "chi0354-0005" }, "geometry": { "type": "LineString", "coordinates": [ [ 775075.551438596448861, 6191051.836874475702643 ], [ 775119.87351572047919, 6191449.372776333242655 ] ] } },
{ "type": "Feature", "properties": { "name": "chi0354-0006" }, "geometry": { "type": "LineString", "coordinates": [ [ 775207.33514453144744, 6191038.063844721764326 ], [ 775186.450277292635292, 6191437.525085425004363 ] ] } },
{ "type": "Feature", "properties": { "name": "chi0354-0007" }, "geometry": { "type": "LineString", "coordinates": [ [ 775343.888708081562072, 6191067.341428235173225 ], [ 775242.920195430517197, 6191454.400823915377259 ] ] } },
{ "type": "Feature", "properties": { "name": "chi0354-0008" }, "geometry": { "type": "LineString", "coordinates": [ [ 775460.878677488071844, 6191101.192706989124417 ], [ 775318.3737807366997, 6191475.045953734777868 ] ] } },
{ "type": "Feature", "properties": { "name": "chi0354-0009" }, "geometry": { "type": "LineString", "coordinates": [ [ 775577.149350168067031, 6191157.38237402588129 ], [ 775379.938312807353213, 6191505.427977438084781 ] ] } },
{ "type": "Feature", "properties": { "name": "chi0354-0010" }, "geometry": { "type": "LineString", "coordinates": [ [ 775671.468595315585844, 6191218.328429043292999 ], [ 775453.167179279960692, 6191553.563982839696109 ] ] } },
{ "type": "Feature", "properties": { "name": "chi0354-0011" }, "geometry": { "type": "LineString", "coordinates": [ [ 775764.314194114180282, 6191279.206205846741796 ], [ 775527.967043472803198, 6191601.875117413699627 ] ] } },
{ "type": "Feature", "properties": { "name": "chi0354-0012" }, "geometry": { "type": "LineString", "coordinates": [ [ 775852.614568485761993, 6191351.321453563868999 ], [ 775594.022707287804224, 6191656.440270530991256 ] ] } },
{ "type": "Feature", "properties": { "name": "chi0354-0013" }, "geometry": { "type": "LineString", "coordinates": [ [ 775930.200831081951037, 6191419.089594874531031 ], [ 775666.980673469253816, 6191720.239074267446995 ] ] } },
{ "type": "Feature", "properties": { "name": "chi0354-0014" }, "geometry": { "type": "LineString", "coordinates": [ [ 776005.048545205732808, 6191484.495452758856118 ], [ 775742.774575587362051, 6191786.507365629076958 ] ] } },
{ "type": "Feature", "properties": { "name": "chi0354-0015" }, "geometry": { "type": "LineString", "coordinates": [ [ 776072.512572479201481, 6191543.013078480027616 ], [ 775826.752597999060526, 6191858.640038825571537 ] ] } },
{ "type": "Feature", "properties": { "name": "chi0354-0016" }, "geometry": { "type": "LineString", "coordinates": [ [ 776146.304284032084979, 6191594.458480739966035 ], [ 775916.638697711983696, 6191921.936274511739612 ] ] } },
{ "type": "Feature", "properties": { "name": "chi0354-0017" }, "geometry": { "type": "LineString", "coordinates": [ [ 776228.191299718338996, 6191651.881603207439184 ], [ 775998.434751348453574, 6191979.364201595075428 ] ] } },
{ "type": "Feature", "properties": { "name": "chi0354-0018" }, "geometry": { "type": "LineString", "coordinates": [ [ 776310.552407232462429, 6191709.734195733442903 ], [ 776079.854037602315657, 6192036.469545867294073 ] ] } },
{ "type": "Feature", "properties": { "name": "chi0354-0019" }, "geometry": { "type": "LineString", "coordinates": [ [ 776402.448197997873649, 6191775.520259352400899 ], [ 776150.847074470017105, 6192086.554620902054012 ] ] } },
{ "type": "Feature", "properties": { "name": "chi0354-0020" }, "geometry": { "type": "LineString", "coordinates": [ [ 776485.521963638602756, 6191851.116482582874596 ], [ 776215.214766243705526, 6192146.051662492565811 ] ] } },
{ "type": "Feature", "properties": { "name": "chi0354-0021" }, "geometry": { "type": "LineString", "coordinates": [ [ 776559.243806992191821, 6191918.661659860983491 ], [ 776288.936520414659753, 6192213.59897087700665 ] ] } },
{ "type": "Feature", "properties": { "name": "chi0354-0022" }, "geometry": { "type": "LineString", "coordinates": [ [ 776632.970001560985111, 6191986.317256678827107 ], [ 776362.659333666786551, 6192281.145758145488799 ] ] } },
{ "type": "Feature", "properties": { "name": "chi0354-0023" }, "geometry": { "type": "LineString", "coordinates": [ [ 776706.693963985191658, 6192053.861391777172685 ], [ 776436.38320598565042, 6192348.692024315707386 ] ] } },
{ "type": "Feature", "properties": { "name": "chi0354-0024" }, "geometry": { "type": "LineString", "coordinates": [ [ 776780.418985520140268, 6192121.405005801469088 ], [ 776510.108137349132448, 6192416.237769402563572 ] ] } },
{ "type": "Feature", "properties": { "name": "chi0354-0025" }, "geometry": { "type": "LineString", "coordinates": [ [ 776864.198764092754573, 6192198.865087371319532 ], [ 776573.783777137519792, 6192473.976646746508777 ] ] } },
{ "type": "Feature", "properties": { "name": "chi0354-0026" }, "geometry": { "type": "LineString", "coordinates": [ [ 776937.727580589940771, 6192287.621860207989812 ], [ 776627.105164434760809, 6192539.572954059578478 ] ] } },
{ "type": "Feature", "properties": { "name": "chi0354-0027" }, "geometry": { "type": "LineString", "coordinates": [ [ 777001.02302531641908, 6192366.577688442543149 ], [ 776688.871413580840454, 6192616.688488444313407 ] ] } },
{ "type": "Feature", "properties": { "name": "chi0354-0028" }, "geometry": { "type": "LineString", "coordinates": [ [ 777063.557207670528442, 6192444.667488923296332 ], [ 776751.404208449181169, 6192694.780293695628643 ] ] } },
{ "type": "Feature", "properties": { "name": "chi0354-0029" }, "geometry": { "type": "LineString", "coordinates": [ [ 777126.092392801074311, 6192522.756928401067853 ], [ 776813.842720228713006, 6192772.763528158888221 ] ] } },
{ "type": "Feature", "properties": { "name": "chi0354-0030" }, "geometry": { "type": "LineString", "coordinates": [ [ 777189.581471032463014, 6192601.928068097680807 ], [ 776875.421352188801393, 6192849.661579178646207 ] ] } },
{ "type": "Feature", "properties": { "name": "chi0354-0031" }, "geometry": { "type": "LineString", "coordinates": [ [ 777253.729090430540964, 6192684.632529960945249 ], [ 776933.912437991471961, 6192924.874384577386081 ] ] } },
{ "type": "Feature", "properties": { "name": "chi0354-0032" }, "geometry": { "type": "LineString", "coordinates": [ [ 777314.401866251369938, 6192768.106219831854105 ], [ 776990.840782179497182, 6193003.242398422211409 ] ] } },
{ "type": "Feature", "properties": { "name": "chi0354-0033" }, "geometry": { "type": "LineString", "coordinates": [ [ 777373.156599345151335, 6192848.971721455454826 ], [ 777049.593753008404747, 6193084.109826074913144 ] ] } },
{ "type": "Feature", "properties": { "name": "chi0354-0034" }, "geometry": { "type": "LineString", "coordinates": [ [ 777431.813700885279104, 6192929.617764077149332 ], [ 777108.541570072295144, 6193165.304294543340802 ] ] } },
{ "type": "Feature", "properties": { "name": "chi0354-0035" }, "geometry": { "type": "LineString", "coordinates": [ [ 777490.267964939121157, 6193009.603323163464665 ], [ 777168.144230826175772, 6193246.812130494043231 ] ] } },
{ "type": "Feature", "properties": { "name": "chi0354-0036" }, "geometry": { "type": "LineString", "coordinates": [ [ 777549.36054722731933, 6193089.347523897886276 ], [ 777228.188083114102483, 6193327.640325563959777 ] ] } },
{ "type": "Feature", "properties": { "name": "chi0354-0037" }, "geometry": { "type": "LineString", "coordinates": [ [ 777609.022580993943848, 6193169.629679679870605 ], [ 777287.756435936084017, 6193407.927163550630212 ] ] } },
{ "type": "Feature", "properties": { "name": "chi0354-0038" }, "geometry": { "type": "LineString", "coordinates": [ [ 777668.593591358745471, 6193249.914249530062079 ], [ 777347.329060305375606, 6193488.324618398211896 ] ] } },
{ "type": "Feature", "properties": { "name": "chi0354-0039" }, "geometry": { "type": "LineString", "coordinates": [ [ 777732.010699089150876, 6193335.635959164239466 ], [ 777403.057656308286823, 6193563.284159597940743 ] ] } },
{ "type": "Feature", "properties": { "name": "chi0354-0040" }, "geometry": { "type": "LineString", "coordinates": [ [ 777793.215874882647768, 6193430.528441410511732 ], [ 777449.974366798996925, 6193636.062701144255698 ] ] } },
{ "type": "Feature", "properties": { "name": "chi0354-0041" }, "geometry": { "type": "LineString", "coordinates": [ [ 777844.978666362352669, 6193523.703194641508162 ], [ 777495.22374577797018, 6193717.773784756660461 ] ] } },
{ "type": "Feature", "properties": { "name": "chi0354-0042" }, "geometry": { "type": "LineString", "coordinates": [ [ 777893.534478115383536, 6193611.199238741770387 ], [ 777543.684895332669839, 6193805.274217186495662 ] ] } },
{ "type": "Feature", "properties": { "name": "chi0354-0043" }, "geometry": { "type": "LineString", "coordinates": [ [ 777943.458490785560571, 6193701.319280656054616 ], [ 777590.680978132411838, 6193889.931052342057228 ] ] } },
{ "type": "Feature", "properties": { "name": "chi0354-0044" }, "geometry": { "type": "LineString", "coordinates": [ [ 777994.591058601392433, 6193801.06355058029294 ], [ 777631.032790576689877, 6193967.901040486991405 ] ] } },
{ "type": "Feature", "properties": { "name": "chi0354-0045" }, "geometry": { "type": "LineString", "coordinates": [ [ 778035.722584584495053, 6193901.994030269794166 ], [ 777665.037728666560724, 6194052.278006022796035 ] ] } },
{ "type": "Feature", "properties": { "name": "chi0354-0046" }, "geometry": { "type": "LineString", "coordinates": [ [ 778073.294662680011243, 6193994.702530290000141 ], [ 777702.603110643802211, 6194144.876841597259045 ] ] } },
{ "type": "Feature", "properties": { "name": "chi0354-0047" }, "geometry": { "type": "LineString", "coordinates": [ [ 778110.867385394638404, 6194087.410914806649089 ], [ 777740.172439326299354, 6194237.586502428166568 ] ] } },
{ "type": "Feature", "properties": { "name": "chi0354-0048" }, "geometry": { "type": "LineString", "coordinates": [ [ 778148.437445061746985, 6194180.008242856711149 ], [ 777777.742412652121857, 6194330.296047726646066 ] ] } },
{ "type": "Feature", "properties": { "name": "chi0354-0049" }, "geometry": { "type": "LineString", "coordinates": [ [ 778189.108502943767235, 6194280.840980865061283 ], [ 777812.216288682539016, 6194414.880788372829556 ] ] } },
{ "type": "Feature", "properties": { "name": "chi0354-0050" }, "geometry": { "type": "LineString", "coordinates": [ [ 778221.825760619947687, 6194386.685498369857669 ], [ 777838.232375693856739, 6194499.9393863780424 ] ] } },
{ "type": "Feature", "properties": { "name": "chi0354-0051" }, "geometry": { "type": "LineString", "coordinates": [ [ 778249.718123588012531, 6194485.123145680874586 ], [ 777864.795792364049703, 6194594.086857747286558 ] ] } },
{ "type": "Feature", "properties": { "name": "chi0354-0052" }, "geometry": { "type": "LineString", "coordinates": [ [ 778276.900699039222673, 6194581.36112355068326 ], [ 777892.063190033077262, 6194690.212027823552489 ] ] } },
{ "type": "Feature", "properties": { "name": "chi0354-0053" }, "geometry": { "type": "LineString", "coordinates": [ [ 778304.484856301452965, 6194678.697477465495467 ], [ 777918.933242356870323, 6194785.349636098369956 ] ] } },
{ "type": "Feature", "properties": { "name": "chi0354-0054" }, "geometry": { "type": "LineString", "coordinates": [ [ 778333.399294792907313, 6194786.653915903531015 ], [ 777942.183913207030855, 6194870.268360050395131 ] ] } },
{ "type": "Feature", "properties": { "name": "chi0354-0055" }, "geometry": { "type": "LineString", "coordinates": [ [ 778350.934251255355775, 6194895.949108947999775 ], [ 777955.865892591769807, 6194958.581169702112675 ] ] } },
{ "type": "Feature", "properties": { "name": "chi0354-0056" }, "geometry": { "type": "LineString", "coordinates": [ [ 778366.590812486596406, 6194994.751549744978547 ], [ 777971.518244190490805, 6195057.384004588238895 ] ] } },
{ "type": "Feature", "properties": { "name": "chi0354-0057" }, "geometry": { "type": "LineString", "coordinates": [ [ 778382.244267656467855, 6195093.443031033501029 ], [ 777987.167494582361542, 6195156.075880110263824 ] ] } },
{ "type": "Feature", "properties": { "name": "chi0354-0058" }, "geometry": { "type": "LineString", "coordinates": [ [ 778397.901235479745083, 6195192.245434713549912 ], [ 778002.820252952049486, 6195254.87867783010006 ] ] } },
{ "type": "Feature", "properties": { "name": "chi0354-0059" }, "geometry": { "type": "LineString", "coordinates": [ [ 778414.736735869897529, 6195299.673761954531074 ], [ 778017.387273321161047, 6195345.052747275680304 ] ] } },
{ "type": "Feature", "properties": { "name": "chi0354-0060" }, "geometry": { "type": "LineString", "coordinates": [ [ 778422.739247245597653, 6195410.474690239876509 ], [ 778023.429186349036172, 6195433.482054112479091 ] ] } },
{ "type": "Feature", "properties": { "name": "chi0354-0061" }, "geometry": { "type": "LineString", "coordinates": [ [ 778427.361564818653278, 6195512.937430145218968 ], [ 778027.711037986213341, 6195530.84691790305078 ] ] } },
{ "type": "Feature", "properties": { "name": "chi0354-0062" }, "geometry": { "type": "LineString", "coordinates": [ [ 778431.815706377965398, 6195612.85126415360719 ], [ 778032.157576696015894, 6195630.64972747117281 ] ] } },
{ "type": "Feature", "properties": { "name": "chi0354-0063" }, "geometry": { "type": "LineString", "coordinates": [ [ 778436.108291732496582, 6195710.438074762001634 ], [ 778036.772106143063866, 6195733.001422861590981 ] ] } },
{ "type": "Feature", "properties": { "name": "chi0354-0064" }, "geometry": { "type": "LineString", "coordinates": [ [ 778442.61869387794286, 6195805.182728798128664 ], [ 778043.943931932910345, 6195837.719795120880008 ] ] } },
{ "type": "Feature", "properties": { "name": "chi0354-0065" }, "geometry": { "type": "LineString", "coordinates": [ [ 778451.771978058386594, 6195902.069330628961325 ], [ 778053.616455898038112, 6195939.809770395979285 ] ] } },
{ "type": "Feature", "properties": { "name": "chi0354-0066" }, "geometry": { "type": "LineString", "coordinates": [ [ 778461.42249300586991, 6196003.271635898388922 ], [ 778062.894013130338863, 6196037.914093159139156 ] ] } },
{ "type": "Feature", "properties": { "name": "chi0354-0067" }, "geometry": { "type": "LineString", "coordinates": [ [ 778469.785980055923574, 6196110.730539740994573 ], [ 778070.234776726225391, 6196129.74686867184937 ] ] } },
{ "type": "Feature", "properties": { "name": "chi0354-0068" }, "geometry": { "type": "LineString", "coordinates": [ [ 778471.572531795362011, 6196216.942102329805493 ], [ 778071.6433642442571, 6196223.421919560059905 ] ] } },
{ "type": "Feature", "properties": { "name": "chi0354-0069" }, "geometry": { "type": "LineString", "coordinates": [ [ 778473.265692601096816, 6196316.938220533542335 ], [ 778073.240211921278387, 6196323.42057771794498 ] ] } },
{ "type": "Feature", "properties": { "name": "chi0354-0070" }, "geometry": { "type": "LineString", "coordinates": [ [ 778474.866727306041867, 6196416.937071946449578 ], [ 778074.928990423446521, 6196423.416483017615974 ] ] } },
{ "type": "Feature", "properties": { "name": "chi0354-0071" }, "geometry": { "type": "LineString", "coordinates": [ [ 778476.490825925837271, 6196517.712497111409903 ], [ 778076.502512938110158, 6196522.638533057644963 ] ] } },
{ "type": "Feature", "properties": { "name": "chi0354-0072" }, "geometry": { "type": "LineString", "coordinates": [ [ 778477.398425738909282, 6196619.175513826310635 ], [ 778077.316559667233378, 6196621.105914309620857 ] ] } },
{ "type": "Feature", "properties": { "name": "chi0354-0073" }, "geometry": { "type": "LineString", "coordinates": [ [ 778477.546487596817315, 6196719.883890487253666 ], [ 778077.512701041763648, 6196720.47999407723546 ] ] } },
{ "type": "Feature", "properties": { "name": "chi0354-0074" }, "geometry": { "type": "LineString", "coordinates": [ [ 778477.152413917239755, 6196805.507054628804326 ], [ 778078.154734910815023, 6196834.831041295081377 ] ] } },
{ "type": "Feature", "properties": { "name": "chi0354-0075" }, "geometry": { "type": "LineString", "coordinates": [ [ 778490.297185315168463, 6196891.059553578495979 ], [ 778093.971916366717778, 6196945.287942413240671 ] ] } },
{ "type": "Feature", "properties": { "name": "chi0354-0076" }, "geometry": { "type": "LineString", "coordinates": [ [ 778504.259964562952518, 6197007.12349002994597 ], [ 778104.64379083737731, 6197025.251306080259383 ] ] } },
{ "type": "Feature", "properties": { "name": "chi0354-0077" }, "geometry": { "type": "LineString", "coordinates": [ [ 778500.939905201550573, 6197124.369085557758808 ], [ 778101.208287963992916, 6197107.855571074411273 ] ] } },
{ "type": "Feature", "properties": { "name": "chi0354-0078" }, "geometry": { "type": "LineString", "coordinates": [ [ 778495.438663757871836, 6197233.351739827543497 ], [ 778096.998091997462325, 6197198.477689910680056 ] ] } },
{ "type": "Feature", "properties": { "name": "chi0354-0079" }, "geometry": { "type": "LineString", "coordinates": [ [ 778482.136422582552768, 6197340.235148146748543 ], [ 778085.263725829543546, 6197290.101103242486715 ] ] } },
{ "type": "Feature", "properties": { "name": "chi0354-0080" }, "geometry": { "type": "LineString", "coordinates": [ [ 778469.617925184313208, 6197439.433409040793777 ], [ 778072.741208722349256, 6197389.298575466498733 ] ] } },
{ "type": "Feature", "properties": { "name": "chi0354-0081" }, "geometry": { "type": "LineString", "coordinates": [ [ 778457.02353082539048, 6197539.18907006457448 ], [ 778060.297125740442425, 6197488.049498251639307 ] ] } },
{ "type": "Feature", "properties": { "name": "chi0354-0082" }, "geometry": { "type": "LineString", "coordinates": [ [ 778443.567853517597541, 6197640.969053601846099 ], [ 778047.602518394705839, 6197584.587044579908252 ] ] } },
{ "type": "Feature", "properties": { "name": "chi0354-0083" }, "geometry": { "type": "LineString", "coordinates": [ [ 778428.152398963924497, 6197741.919076880440116 ], [ 778032.701829470694065, 6197681.301240000873804 ] ] } },
{ "type": "Feature", "properties": { "name": "chi0354-0084" }, "geometry": { "type": "LineString", "coordinates": [ [ 778413.041826267028227, 6197840.750194305554032 ], [ 778017.587322518695146, 6197780.131466494873166 ] ] } },
{ "type": "Feature", "properties": { "name": "chi0354-0085" }, "geometry": { "type": "LineString", "coordinates": [ [ 778397.838762991130352, 6197939.583996745757759 ], [ 778002.472369540133514, 6197878.961634779348969 ] ] } }
]
}
