{
"type": "FeatureCollection",
"crs": { "type": "name", "properties": { "name": "urn:ogc:def:crs:EPSG::32718" } },
"features": [
{ "type": "Feature", "properties": { "name": "chi0357-0000" }, "geometry": { "type": "LineString", "coordinates": [ [ 772874.762455127900466, 6177143.464209202677011 ], [ 772507.731047315523028, 6177302.488343772478402 ] ] } },
{ "type": "Feature", "properties": { "name": "chi0357-0001" }, "geometry": { "type": "LineString", "coordinates": [ [ 772920.812157506356016, 6177252.81344479881227 ], [ 772538.798417683923617, 6177371.306679978966713 ] ] } },
{ "type": "Feature", "properties": { "name": "chi0357-0002" }, "geometry": { "type": "LineString", "coordinates": [ [ 772945.433932338492014, 6177371.120829964056611 ], [ 772553.123846848495305, 6177449.055640339851379 ] ] } },
{ "type": "Feature", "properties": { "name": "chi0357-0003" }, "geometry": { "type": "LineString", "coordinates": [ [ 772964.86682290956378, 6177469.261065162718296 ], [ 772572.549326964886859, 6177547.085497641935945 ] ] } },
{ "type": "Feature", "properties": { "name": "chi0357-0004" }, "geometry": { "type": "LineString", "coordinates": [ [ 772984.300001013791189, 6177567.401271906681359 ], [ 772591.978354203980416, 6177645.226267411373556 ] ] } },
{ "type": "Feature", "properties": { "name": "chi0357-0005" }, "geometry": { "type": "LineString", "coordinates": [ [ 773005.365721693844534, 6177674.154316381551325 ], [ 772609.956203137408011, 6177734.637757823802531 ] ] } },
{ "type": "Feature", "properties": { "name": "chi0357-0006" }, "geometry": { "type": "LineString", "coordinates": [ [ 773017.712470406433567, 6177787.604072015732527 ], [ 772618.974023279850371, 6177819.426901077851653 ] ] } },
{ "type": "Feature", "properties": { "name": "chi0357-0007" }, "geometry": { "type": "LineString", "coordinates": [ [ 773023.293647172744386, 6177892.925121845677495 ], [ 772623.860544132767245, 6177913.775550882332027 ] ] } },
{ "type": "Feature", "properties": { "name": "chi0357-0008" }, "geometry": { "type": "LineString", "coordinates": [ [ 773028.531152337091044, 6177992.81545430328697 ], [ 772629.093725418206304, 6178013.665839643217623 ] ] } },
{ "type": "Feature", "properties": { "name": "chi0357-0009" }, "geometry": { "type": "LineString", "coordinates": [ [ 773033.611503664869815, 6178090.489658708684146 ], [ 772634.392083709128201, 6178115.774936426430941 ] ] } },
{ "type": "Feature", "properties": { "name": "chi0357-0010" }, "geometry": { "type": "LineString", "coordinates": [ [ 773040.23124467744492, 6178181.123218607157469 ], [ 772642.549538848572411, 6178224.46221462264657 ] ] } },
{ "type": "Feature", "properties": { "name": "chi0357-0011" }, "geometry": { "type": "LineString", "coordinates": [ [ 773053.604789545293897, 6178273.223590588197112 ], [ 772657.701024182606488, 6178330.279099161736667 ] ] } },
{ "type": "Feature", "properties": { "name": "chi0357-0012" }, "geometry": { "type": "LineString", "coordinates": [ [ 773067.712396017741412, 6178371.520428713411093 ], [ 772672.027221414493397, 6178429.902168556116521 ] ] } },
{ "type": "Feature", "properties": { "name": "chi0357-0013" }, "geometry": { "type": "LineString", "coordinates": [ [ 773079.395120164728723, 6178453.010976104997098 ], [ 772690.3295947634615, 6178545.952849177643657 ] ] } },
{ "type": "Feature", "properties": { "name": "chi0357-0014" }, "geometry": { "type": "LineString", "coordinates": [ [ 773105.459570037783124, 6178529.63679918833077 ], [ 772727.028980267816223, 6178659.242158585228026 ] ] } },
{ "type": "Feature", "properties": { "name": "chi0357-0015" }, "geometry": { "type": "LineString", "coordinates": [ [ 773137.545182965928689, 6178620.298116784542799 ], [ 772761.71115076658316, 6178757.045533364638686 ] ] } },
{ "type": "Feature", "properties": { "name": "chi0357-0016" }, "geometry": { "type": "LineString", "coordinates": [ [ 773173.885035060578957, 6178718.051558748818934 ], [ 772795.145518083358184, 6178846.779826210811734 ] ] } },
{ "type": "Feature", "properties": { "name": "chi0357-0017" }, "geometry": { "type": "LineString", "coordinates": [ [ 773205.183052117354237, 6178819.395482866093516 ], [ 772822.695308424299583, 6178936.464948669075966 ] ] } },
{ "type": "Feature", "properties": { "name": "chi0357-0018" }, "geometry": { "type": "LineString", "coordinates": [ [ 773234.192634224658832, 6178914.810709426179528 ], [ 772851.90109378262423, 6179032.430436202324927 ] ] } },
{ "type": "Feature", "properties": { "name": "chi0357-0019" }, "geometry": { "type": "LineString", "coordinates": [ [ 773263.740760155022144, 6179009.765879853628576 ], [ 772881.75361676781904, 6179128.487894220277667 ] ] } },
{ "type": "Feature", "properties": { "name": "chi0357-0020" }, "geometry": { "type": "LineString", "coordinates": [ [ 773293.397567166713998, 6179105.272981951013207 ], [ 772911.406622475944459, 6179223.995979113504291 ] ] } },
{ "type": "Feature", "properties": { "name": "chi0357-0021" }, "geometry": { "type": "LineString", "coordinates": [ [ 773324.386206750990823, 6179205.404374842531979 ], [ 772939.728977053193375, 6179314.879591224715114 ] ] } },
{ "type": "Feature", "properties": { "name": "chi0357-0022" }, "geometry": { "type": "LineString", "coordinates": [ [ 773351.238169455900788, 6179308.655531171709299 ], [ 772962.973499833722599, 6179405.024175774306059 ] ] } },
{ "type": "Feature", "properties": { "name": "chi0357-0023" }, "geometry": { "type": "LineString", "coordinates": [ [ 773374.754671147675253, 6179407.896497124806046 ], [ 772985.636834711651318, 6179500.40454890858382 ] ] } },
{ "type": "Feature", "properties": { "name": "chi0357-0024" }, "geometry": { "type": "LineString", "coordinates": [ [ 773401.097716546384618, 6179521.933176138438284 ], [ 773005.474980992963538, 6179580.98904781229794 ] ] } },
{ "type": "Feature", "properties": { "name": "chi0357-0025" }, "geometry": { "type": "LineString", "coordinates": [ [ 773409.311301263514906, 6179641.611478324979544 ], [ 773009.713926184922457, 6179659.478430063463748 ] ] } },
{ "type": "Feature", "properties": { "name": "chi0357-0026" }, "geometry": { "type": "LineString", "coordinates": [ [ 773411.609584807301871, 6179735.259196450002491 ], [ 773012.737742084078491, 6179765.429619894362986 ] ] } },
{ "type": "Feature", "properties": { "name": "chi0357-0027" }, "geometry": { "type": "LineString", "coordinates": [ [ 773422.835546390386298, 6179822.981084628030658 ], [ 773026.383888642070815, 6179876.176115414127707 ] ] } },
{ "type": "Feature", "properties": { "name": "chi0357-0028" }, "geometry": { "type": "LineString", "coordinates": [ [ 773436.731055560987443, 6179920.173542488366365 ], [ 773040.838936646701768, 6179976.905503772199154 ] ] } },
{ "type": "Feature", "properties": { "name": "chi0357-0029" }, "geometry": { "type": "LineString", "coordinates": [ [ 773452.900721547193825, 6180041.505118511617184 ], [ 773053.113084545359015, 6180053.493007300421596 ] ] } },
{ "type": "Feature", "properties": { "name": "chi0357-0030" }, "geometry": { "type": "LineString", "coordinates": [ [ 773443.872883150819689, 6180165.799511441960931 ], [ 773045.649914747104049, 6180127.996058428660035 ] ] } },
{ "type": "Feature", "properties": { "name": "chi0357-0031" }, "geometry": { "type": "LineString", "coordinates": [ [ 773432.606221239315346, 6180270.284129379317164 ], [ 773035.460057973512448, 6180222.343793894164264 ] ] } },
{ "type": "Feature", "properties": { "name": "chi0357-0032" }, "geometry": { "type": "LineString", "coordinates": [ [ 773418.967336843721569, 6180372.284688130021095 ], [ 773022.566060783807188, 6180318.547579593025148 ] ] } },
{ "type": "Feature", "properties": { "name": "chi0357-0033" }, "geometry": { "type": "LineString", "coordinates": [ [ 773405.344761700602248, 6180471.730848804116249 ], [ 773009.011752866674215, 6180417.324562454596162 ] ] } },
{ "type": "Feature", "properties": { "name": "chi0357-0034" }, "geometry": { "type": "LineString", "coordinates": [ [ 773390.940245602861978, 6180575.863520196639001 ], [ 772996.232218209654093, 6180511.193095223978162 ] ] } },
{ "type": "Feature", "properties": { "name": "chi0357-0035" }, "geometry": { "type": "LineString", "coordinates": [ [ 773370.878466015914455, 6180681.495096426457167 ], [ 772978.856118525611237, 6180601.976629015989602 ] ] } },
{ "type": "Feature", "properties": { "name": "chi0357-0036" }, "geometry": { "type": "LineString", "coordinates": [ [ 773349.366615892970003, 6180781.617401991039515 ], [ 772958.305922631872818, 6180697.405875819735229 ] ] } },
{ "type": "Feature", "properties": { "name": "chi0357-0037" }, "geometry": { "type": "LineString", "coordinates": [ [ 773328.33684840076603, 6180879.393635500222445 ], [ 772937.272429429693148, 6180795.180992159992456 ] ] } },
{ "type": "Feature", "properties": { "name": "chi0357-0038" }, "geometry": { "type": "LineString", "coordinates": [ [ 773307.132565015810542, 6180977.508010137826204 ], [ 772916.317206352134235, 6180892.509557958692312 ] ] } },
{ "type": "Feature", "properties": { "name": "chi0357-0039" }, "geometry": { "type": "LineString", "coordinates": [ [ 773285.067723231157288, 6181077.646261554211378 ], [ 772895.391365056857467, 6180987.727465078234673 ] ] } },
{ "type": "Feature", "properties": { "name": "chi0357-0040" }, "geometry": { "type": "LineString", "coordinates": [ [ 773261.135392538039014, 6181176.840010145679116 ], [ 772872.348609236301854, 6181082.896426687017083 ] ] } },
{ "type": "Feature", "properties": { "name": "chi0357-0041" }, "geometry": { "type": "LineString", "coordinates": [ [ 773237.694946209900081, 6181274.020502985455096 ], [ 772848.904553145635873, 6181180.075714070349932 ] ] } },
{ "type": "Feature", "properties": { "name": "chi0357-0042" }, "geometry": { "type": "LineString", "coordinates": [ [ 773214.083189841825515, 6181371.650060724467039 ], [ 772825.450114214327186, 6181276.922077212482691 ] ] } },
{ "type": "Feature", "properties": { "name": "chi0357-0043" }, "geometry": { "type": "LineString", "coordinates": [ [ 773189.692853022017516, 6181470.96794322039932 ], [ 772802.212055421900004, 6181371.763313515111804 ] ] } },
{ "type": "Feature", "properties": { "name": "chi0357-0044" }, "geometry": { "type": "LineString", "coordinates": [ [ 773163.530064579914324, 6181569.449524164199829 ], [ 772776.948832573601976, 6181466.552865518257022 ] ] } },
{ "type": "Feature", "properties": { "name": "chi0357-0045" }, "geometry": { "type": "LineString", "coordinates": [ [ 773137.770553645677865, 6181666.031485919840634 ], [ 772751.280963675584644, 6181563.24178109318018 ] ] } },
{ "type": "Feature", "properties": { "name": "chi0357-0046" }, "geometry": { "type": "LineString", "coordinates": [ [ 773112.105535926995799, 6181762.721569627523422 ], [ 772725.517309294547886, 6181659.822336665354669 ] ] } },
{ "type": "Feature", "properties": { "name": "chi0357-0047" }, "geometry": { "type": "LineString", "coordinates": [ [ 773086.59428508579731, 6181858.407669611275196 ], [ 772699.598551988252439, 6181757.406632767990232 ] ] } },
{ "type": "Feature", "properties": { "name": "chi0357-0048" }, "geometry": { "type": "LineString", "coordinates": [ [ 773062.342676973203197, 6181953.168322728015482 ], [ 772674.26949922950007, 6181856.305914226919413 ] ] } },
{ "type": "Feature", "properties": { "name": "chi0357-0049" }, "geometry": { "type": "LineString", "coordinates": [ [ 773039.048428252339363, 6182049.233153566718102 ], [ 772650.396892115939409, 6181954.718175213783979 ] ] } },
{ "type": "Feature", "properties": { "name": "chi0357-0050" }, "geometry": { "type": "LineString", "coordinates": [ [ 773015.415382256032899, 6182146.307147720828652 ], [ 772626.763503099326044, 6182051.901897691190243 ] ] } },
{ "type": "Feature", "properties": { "name": "chi0357-0051" }, "geometry": { "type": "LineString", "coordinates": [ [ 772991.784985603182577, 6182243.491978625766933 ], [ 772603.126248324406333, 6182148.974576059728861 ] ] } },
{ "type": "Feature", "properties": { "name": "chi0357-0052" }, "geometry": { "type": "LineString", "coordinates": [ [ 772966.255674704560079, 6182348.060861038044095 ], [ 772581.390210037818179, 6182238.774031421169639 ] ] } },
{ "type": "Feature", "properties": { "name": "chi0357-0053" }, "geometry": { "type": "LineString", "coordinates": [ [ 772932.9451434930088, 6182450.748467793688178 ], [ 772552.77919745631516, 6182326.221222575753927 ] ] } },
{ "type": "Feature", "properties": { "name": "chi0357-0054" }, "geometry": { "type": "LineString", "coordinates": [ [ 772901.443536937469617, 6182546.165400248020887 ], [ 772521.619167525786906, 6182420.84930650703609 ] ] } },
{ "type": "Feature", "properties": { "name": "chi0357-0055" }, "geometry": { "type": "LineString", "coordinates": [ [ 772870.111925630364567, 6182641.133015356957912 ], [ 772490.284380171331577, 6182515.815444123931229 ] ] } },
{ "type": "Feature", "properties": { "name": "chi0357-0056" }, "geometry": { "type": "LineString", "coordinates": [ [ 772838.779567621648312, 6182736.100472723133862 ], [ 772458.945593474199995, 6182610.670483794994652 ] ] } },
{ "type": "Feature", "properties": { "name": "chi0357-0057" }, "geometry": { "type": "LineString", "coordinates": [ [ 772807.44971955625806, 6182831.17871268466115 ], [ 772427.69795138342306, 6182705.522672020830214 ] ] } },
{ "type": "Feature", "properties": { "name": "chi0357-0058" }, "geometry": { "type": "LineString", "coordinates": [ [ 772775.932082405313849, 6182926.151248720474541 ], [ 772396.265783123672009, 6182800.38009013608098 ] ] } },
{ "type": "Feature", "properties": { "name": "chi0357-0059" }, "geometry": { "type": "LineString", "coordinates": [ [ 772744.50558852404356, 6183021.120928825810552 ], [ 772364.836118680308573, 6182895.34829000197351 ] ] } },
{ "type": "Feature", "properties": { "name": "chi0357-0060" }, "geometry": { "type": "LineString", "coordinates": [ [ 772713.07509100867901, 6183115.979510197415948 ], [ 772333.402455058181658, 6182990.20539128780365 ] ] } },
{ "type": "Feature", "properties": { "name": "chi0357-0061" }, "geometry": { "type": "LineString", "coordinates": [ [ 772681.643846022197977, 6183210.837933147326112 ], [ 772301.882650701561943, 6183085.286906685680151 ] ] } },
{ "type": "Feature", "properties": { "name": "chi0357-0062" }, "geometry": { "type": "LineString", "coordinates": [ [ 772650.477779928944074, 6183305.355290217325091 ], [ 772270.463739551603794, 6183180.698391161859035 ] ] } },
{ "type": "Feature", "properties": { "name": "chi0357-0063" }, "geometry": { "type": "LineString", "coordinates": [ [ 772619.593174048233777, 6183400.086285868659616 ], [ 772239.319763627368957, 6183276.10164231993258 ] ] } },
{ "type": "Feature", "properties": { "name": "chi0357-0064" }, "geometry": { "type": "LineString", "coordinates": [ [ 772588.625694403424859, 6183495.152642926201224 ], [ 772208.349087917245924, 6183371.166534567251801 ] ] } },
{ "type": "Feature", "properties": { "name": "chi0357-0065" }, "geometry": { "type": "LineString", "coordinates": [ [ 772557.483434885274619, 6183590.557054590433836 ], [ 772177.459824603283778, 6183465.895761149004102 ] ] } },
{ "type": "Feature", "properties": { "name": "chi0357-0066" }, "geometry": { "type": "LineString", "coordinates": [ [ 772525.466960913036019, 6183687.541412812657654 ], [ 772146.790306685492396, 6183558.730782689526677 ] ] } },
{ "type": "Feature", "properties": { "name": "chi0357-0067" }, "geometry": { "type": "LineString", "coordinates": [ [ 772491.769476103130728, 6183783.686573289334774 ], [ 772114.275591359240934, 6183651.39757539704442 ] ] } },
{ "type": "Feature", "properties": { "name": "chi0357-0068" }, "geometry": { "type": "LineString", "coordinates": [ [ 772458.754381166305393, 6183878.034967914223671 ], [ 772081.257430501049384, 6183745.744439728558064 ] ] } },
{ "type": "Feature", "properties": { "name": "chi0357-0069" }, "geometry": { "type": "LineString", "coordinates": [ [ 772425.646609884919599, 6183972.385884535498917 ], [ 772048.146594900172204, 6183840.093822425231338 ] ] } },
{ "type": "Feature", "properties": { "name": "chi0357-0070" }, "geometry": { "type": "LineString", "coordinates": [ [ 772391.775935896905139, 6184068.979662884958088 ], [ 772015.892332346062176, 6183932.308286244049668 ] ] } },
{ "type": "Feature", "properties": { "name": "chi0357-0071" }, "geometry": { "type": "LineString", "coordinates": [ [ 772355.334368898067623, 6184165.759582234546542 ], [ 771981.83600069466047, 6184022.687692007049918 ] ] } },
{ "type": "Feature", "properties": { "name": "chi0357-0072" }, "geometry": { "type": "LineString", "coordinates": [ [ 772318.722049561794847, 6184259.879431698471308 ], [ 771945.992754921549931, 6184114.89572118408978 ] ] } },
{ "type": "Feature", "properties": { "name": "chi0357-0073" }, "geometry": { "type": "LineString", "coordinates": [ [ 772282.450525320484303, 6184353.100794227793813 ], [ 771909.718377765966579, 6184208.115453442558646 ] ] } },
{ "type": "Feature", "properties": { "name": "chi0357-0074" }, "geometry": { "type": "LineString", "coordinates": [ [ 772246.178175575332716, 6184446.32195832580328 ], [ 771873.439931292552501, 6184301.22404751740396 ] ] } },
{ "type": "Feature", "properties": { "name": "chi0357-0075" }, "geometry": { "type": "LineString", "coordinates": [ [ 772209.99690862337593, 6184539.54023350123316 ], [ 771837.163903788197786, 6184394.443382995203137 ] ] } },
{ "type": "Feature", "properties": { "name": "chi0357-0076" }, "geometry": { "type": "LineString", "coordinates": [ [ 772173.719661759212613, 6184632.650061307474971 ], [ 771800.887050878838636, 6184487.662520073354244 ] ] } },
{ "type": "Feature", "properties": { "name": "chi0357-0077" }, "geometry": { "type": "LineString", "coordinates": [ [ 772137.697841450804844, 6184725.085982811637223 ], [ 771764.356343145249411, 6184581.666094820015132 ] ] } },
{ "type": "Feature", "properties": { "name": "chi0357-0078" }, "geometry": { "type": "LineString", "coordinates": [ [ 772102.860312901437283, 6184817.153929045423865 ], [ 771728.402186831226572, 6184676.540871823206544 ] ] } },
{ "type": "Feature", "properties": { "name": "chi0357-0079" }, "geometry": { "type": "LineString", "coordinates": [ [ 772068.14636511716526, 6184910.328399343416095 ], [ 771693.25818085949868, 6184770.83658679947257 ] ] } },
{ "type": "Feature", "properties": { "name": "chi0357-0080" }, "geometry": { "type": "LineString", "coordinates": [ [ 772033.355934808496386, 6185004.060072310268879 ], [ 771658.464801943860948, 6184864.566675286740065 ] ] } },
{ "type": "Feature", "properties": { "name": "chi0357-0081" }, "geometry": { "type": "LineString", "coordinates": [ [ 771998.469544639345258, 6185097.683308022096753 ], [ 771623.578709313180298, 6184958.299262648448348 ] ] } },
{ "type": "Feature", "properties": { "name": "chi0357-0082" }, "geometry": { "type": "LineString", "coordinates": [ [ 771962.990853286581114, 6185193.100206073373556 ], [ 771589.289848817163147, 6185050.459721453487873 ] ] } },
{ "type": "Feature", "properties": { "name": "chi0357-0083" }, "geometry": { "type": "LineString", "coordinates": [ [ 771925.666533039882779, 6185288.348776465281844 ], [ 771553.674548652605154, 6185141.326296601444483 ] ] } },
{ "type": "Feature", "properties": { "name": "chi0357-0084" }, "geometry": { "type": "LineString", "coordinates": [ [ 771888.473293335177004, 6185381.816729518584907 ], [ 771516.905670325504616, 6185233.669776578433812 ] ] } },
{ "type": "Feature", "properties": { "name": "chi0357-0085" }, "geometry": { "type": "LineString", "coordinates": [ [ 771851.446831269655377, 6185474.724404839798808 ], [ 771479.876409880700521, 6185326.575800231657922 ] ] } },
{ "type": "Feature", "properties": { "name": "chi0357-0086" }, "geometry": { "type": "LineString", "coordinates": [ [ 771814.238938241731375, 6185567.748186683282256 ], [ 771442.931754644494504, 6185419.25705766864121 ] ] } },
{ "type": "Feature", "properties": { "name": "chi0357-0087" }, "geometry": { "type": "LineString", "coordinates": [ [ 771776.852848479058594, 6185660.999011983163655 ], [ 771405.792721434496343, 6185511.61065670941025 ] ] } },
{ "type": "Feature", "properties": { "name": "chi0357-0088" }, "geometry": { "type": "LineString", "coordinates": [ [ 771739.361029293038882, 6185753.808555725961924 ], [ 771368.475491899065673, 6185604.191292095929384 ] ] } },
{ "type": "Feature", "properties": { "name": "chi0357-0089" }, "geometry": { "type": "LineString", "coordinates": [ [ 771701.960286870249547, 6185846.615205656737089 ], [ 771331.068740743212402, 6185696.885340647771955 ] ] } }
]
}
